NORAD_CAT_ID,OBJECT_NAME,OBJECT_TYPE,EPOCH,MEAN_MOTION,ECCENTRICITY,INCLINATION,RA_OF_ASC_NODE,ARG_OF_PERICENTER,MEAN_ANOMALY,BSTAR,MEAN_MOTION_DOT,MEAN_MOTION_DDOT,TLE_LINE0,TLE_LINE1,TLE_LINE2,SEMIMAJOR_AXIS,PERIOD,APOGEE,PERIGEE,DECAYED
53716.0,STARLINK-4699,PAYLOAD,2022-09-22 22:00:00,15.73184741,0.0001419999999999,53.2142,184.9229,124.0951,119.9641,0.00011596,0.00015674,0.0,0 STARLINK-4699,1 53716U 22107S   22265.91667824  .00015674  00000-0  11596-3 0  9992,2 53716  53.2142 184.9229 0001420 124.0951 119.9641 15.73184741  1301,6727.939,91.534,350.759,348.848,0.0
53716.0,STARLINK-4699,PAYLOAD,2022-09-23 14:00:01,15.73171697,0.0001557,53.2147,181.6232,123.6881,298.238,0.00037075,0.0005167,0.0,0 STARLINK-4699,1 53716U 22107S   22266.58334491  .00051670  00000-0  37075-3 0  9993,2 53716  53.2147 181.6232 0001557 123.6881 298.2380 15.73171697  3019,6727.976,91.535,350.88800000000015,348.793,0.0
53716.0,STARLINK-4699,PAYLOAD,2022-09-23 20:00:01,15.73211905,0.0001665999999999,53.2149,180.3862,121.1584,277.5098,0.00026754,0.00037113,0.0,0 STARLINK-4699,1 53716U 22107S   22266.83335648  .00037113  00000-0  26754-3 0  9994,2 53716  53.2149 180.3862 0001666 121.1584 277.5098 15.73211905  1303,6727.861,91.532,350.847,348.605,0.0
53716.0,STARLINK-4699,PAYLOAD,2022-09-24 14:00:01,15.73208826,0.0001528,53.2142,176.6742,129.366,199.5267,0.00019948,0.00027478,0.0,0 STARLINK-4699,1 53716U 22107S   22267.58335648  .00027478  00000-0  19948-3 0  9997,2 53716  53.2142 176.6742 0001528 129.3660 199.5267 15.73208826  1302,6727.87,91.533,350.76300000000015,348.707,0.0
53716.0,STARLINK-4699,PAYLOAD,2022-09-24 22:00:00,15.73265311,0.0001501999999999,53.2145,175.0258,128.0636,289.7063,-0.00054721,-0.00076934,0.0,0 STARLINK-4699,1 53716U 22107S   22267.91667824 -.00076934  00000-0 -54721-3 0  9999,2 53716  53.2145 175.0258 0001502 128.0636 289.7063 15.73265311  1309,6727.709,91.529,350.584,348.56300000000016,0.0
53716.0,STARLINK-4699,PAYLOAD,2022-09-25 06:00:00,15.73248742,0.0001448,53.2149,173.3772,118.803,27.9335,-0.00086887,-0.00121075,0.0,0 STARLINK-4699,1 53716U 22107S   22268.25001157 -.00121075  00000-0 -86887-3 0  9993,2 53716  53.2149 173.3772 0001448 118.8030  27.9335 15.73248742  3281,6727.755999999999,91.53,350.595,348.647,0.0
53716.0,STARLINK-4699,PAYLOAD,2022-09-25 14:00:01,15.72920028,0.0001613,53.2166,171.7251,112.247,123.4896,0.0021522,0.00309091,0.0,0 STARLINK-4699,1 53716U 22107S   22268.58334491  .00309091  00000-0  21522-2 0  9997,2 53716  53.2166 171.7251 0001613 112.2470 123.4896 15.72920028  1302,6728.694,91.549,351.644,349.473,0.0
53716.0,STARLINK-4699,PAYLOAD,2022-09-25 22:00:01,15.732102,0.0001388,53.215,170.0773,128.3989,196.2197,-0.00043625,-0.00061426,0.0,0 STARLINK-4699,1 53716U 22107S   22268.91668981 -.00061426  00000-0 -43625-3 0  9996,2 53716  53.2150 170.0773 0001388 128.3989 196.2197 15.73210200  3385,6727.866,91.533,350.665,348.797,0.0
53716.0,STARLINK-4699,PAYLOAD,2022-09-26 10:00:00,15.73254383,0.0001365,53.2141,167.6027,129.6884,148.2448,-0.00071219,-0.00099628,0.0,0 STARLINK-4699,1 53716U 22107S   22269.41667824 -.00099628  00000-0 -71219-3 0  9992,2 53716  53.2141 167.6027 0001365 129.6884 148.2448 15.73254383  3467,6727.74,91.53,350.523,348.68699999999984,0.0
53716.0,STARLINK-4699,PAYLOAD,2022-09-26 14:00:01,15.73172233,0.0001436,53.2139,166.7772,135.629,6.8128,0.00059605,0.0008377,0.0,0 STARLINK-4699,1 53716U 22107S   22269.58334491  .00083770  00000-0  59605-3 0  9995,2 53716  53.2139 166.7772 0001436 135.6290   6.8128 15.73172233  1306,6727.974,91.535,350.805,348.87300000000016,0.0
53716.0,STARLINK-4699,PAYLOAD,2022-09-26 22:00:00,15.73259973,0.0001369,53.2141,165.1291,133.6658,97.6852,-0.00074255,-0.00103822,0.0,0 STARLINK-4699,1 53716U 22107S   22269.91667824 -.00103822  00000-0 -74255-3 0  9992,2 53716  53.2141 165.1291 0001369 133.6658  97.6852 15.73259973  3546,6727.724,91.53,350.51,348.668,0.0
53716.0,STARLINK-4699,PAYLOAD,2022-09-27 06:00:00,15.73214091,0.0001115999999999,53.214,163.48,134.5459,185.7559,-0.00034861,-0.00049287,0.0,0 STARLINK-4699,1 53716U 22107S   22270.25001157 -.00049287  00000-0 -34861-3 0  9995,2 53716  53.2140 163.4800 0001116 134.5459 185.7559 15.73214091  3591,6727.855,91.532,350.471,348.969,0.0
53716.0,STARLINK-4699,PAYLOAD,2022-09-27 14:00:01,15.73136773,0.000143,53.2142,161.8283,136.7488,272.4918,0.00081644,0.00115233,0.0,0 STARLINK-4699,1 53716U 22107S   22270.58334491  .00115233  00000-0  81644-3 0  9995,2 53716  53.2142 161.8283 0001430 136.7488 272.4918 15.73136773  1305,6728.075,91.537,350.903,348.978,0.0
53716.0,STARLINK-4699,PAYLOAD,2022-09-27 22:00:01,15.73228475,0.0001339,53.214,160.1802,131.028,7.1854,0.00034143,0.00047628,0.0,0 STARLINK-4699,1 53716U 22107S   22270.91668981  .00047628  00000-0  34143-3 0  9990,2 53716  53.2140 160.1802 0001339 131.0280   7.1854 15.73228475  3707,6727.814,91.532,350.58,348.778,0.0
53716.0,STARLINK-4699,PAYLOAD,2022-09-28 14:00:01,15.73281231,0.0001455,53.2134,156.8794,140.78,175.3957,-0.00042941,-0.00060662,0.0,0 STARLINK-4699,1 53716U 22107S   22271.58334491 -.00060662  00000-0 -42941-3 0  9990,2 53716  53.2134 156.8794 0001455 140.7800 175.3957 15.73281231  1301,6727.6640000000025,91.528,350.50699999999995,348.55,0.0
53716.0,STARLINK-4699,PAYLOAD,2022-09-28 22:00:00,15.73240489,0.0001385,53.2135,155.2314,130.9467,274.176,-0.0013976,-0.00192675,0.0,0 STARLINK-4699,1 53716U 22107S   22271.91667824 -.00192675  00000-0 -13976-2 0  9991,2 53716  53.2135 155.2314 0001385 130.9467 274.1760 15.73240489  1305,6727.78,91.531,350.577,348.713,0.0
53716.0,STARLINK-4699,PAYLOAD,2022-09-29 06:00:00,15.73084583,0.0001569,53.2134,153.5819,123.3366,10.6852,0.00029306,0.00040505,0.0,0 STARLINK-4699,1 53716U 22107S   22272.25001157  .00040505  00000-0  29306-3 0  9997,2 53716  53.2134 153.5819 0001569 123.3366  10.6852 15.73084583  3918,6728.224,91.54,351.145,349.034,0.0
53716.0,STARLINK-4699,PAYLOAD,2022-09-29 14:00:01,15.73091025,0.0001681,53.2135,151.9305,130.8062,92.0203,0.00071616,0.0010063,0.0,0 STARLINK-4699,1 53716U 22107S   22272.58334491  .00100630  00000-0  71616-3 0  9990,2 53716  53.2135 151.9305 0001681 130.8062  92.0203 15.73091025  1306,6728.206,91.54,351.202,348.94,0.0
53716.0,STARLINK-4699,PAYLOAD,2022-09-29 20:00:01,15.73166216,0.0001641,53.2138,150.6947,127.0561,72.467,0.00024908,0.0003443,0.0,0 STARLINK-4699,1 53716U 22107S   22272.83335648  .00034430  00000-0  24908-3 0  9999,2 53716  53.2138 150.6947 0001641 127.0561  72.4670 15.73166216  4000,6727.991,91.535,350.961,348.75199999999984,0.0
53716.0,STARLINK-4699,PAYLOAD,2022-09-29 22:00:00,15.73165502,0.0001593,53.2135,150.2829,124.7204,186.9499,0.00029267,0.00040593,0.0,0 STARLINK-4699,1 53716U 22107S   22272.91667824  .00040593  00000-0  29267-3 0  9992,2 53716  53.2135 150.2829 0001593 124.7204 186.9499 15.73165502  1303,6727.994000000002,91.535,350.93,348.787,0.0
53716.0,STARLINK-4699,PAYLOAD,2022-09-30 14:00:01,15.73248147,0.000157,53.2132,146.982,139.2514,350.2816,-3.0119e-05,-4.854e-05,0.0,0 STARLINK-4699,1 53716U 22107S   22273.58334491 -.00004854  00000-0 -30119-4 0  9998,2 53716  53.2132 146.9820 0001570 139.2514 350.2816 15.73248147  1309,6727.7580000000025,91.53,350.67900000000014,348.56699999999995,0.0
53716.0,STARLINK-4699,PAYLOAD,2022-09-30 22:00:00,15.7326548,0.0001398,53.2133,145.3342,133.0254,85.4917,-0.00041986,-0.00059296,0.0,0 STARLINK-4699,1 53716U 22107S   22273.91667824 -.00059296  00000-0 -41986-3 0  9997,2 53716  53.2133 145.3342 0001398 133.0254  85.4917 15.73265480  1301,6727.708000000001,91.529,350.514,348.6330000000001,0.0
53716.0,STARLINK-4699,PAYLOAD,2022-10-01 14:00:01,15.7320991,0.0001583,53.2138,142.0327,137.5876,258.8745,-0.0001036999999999,-0.00015154,0.0,0 STARLINK-4699,1 53716U 22107S   22274.58334491 -.00015154  00000-0 -10370-3 0  9990,2 53716  53.2138 142.0327 0001583 137.5876 258.8745 15.73209910  1309,6727.8669999999975,91.533,350.797,348.667,0.0
53716.0,STARLINK-4699,PAYLOAD,2022-10-01 22:00:00,15.73208249,0.000129,53.2138,140.3851,135.0719,350.3267,-0.00069146,-0.00096589,0.0,0 STARLINK-4699,1 53716U 22107S   22274.91667824 -.00096589  00000-0 -69146-3 0  9992,2 53716  53.2138 140.3851 0001290 135.0719 350.3267 15.73208249  1307,6727.871999999999,91.533,350.605,348.869,0.0
53716.0,STARLINK-4699,PAYLOAD,2022-10-02 06:00:00,15.73146364,0.0001248,53.2135,138.7352,137.2741,77.0206,6.1134e-05,7.949e-05,0.0,0 STARLINK-4699,1 53716U 22107S   22275.25001157  .00007949  00000-0  61134-4 0  9991,2 53716  53.2135 138.7352 0001248 137.2741  77.0206 15.73146364  4389,6728.0480000000025,91.536,350.75300000000016,349.0730000000001,0.0
53716.0,STARLINK-4699,PAYLOAD,2022-10-02 14:00:01,15.73149798,0.000145,53.2138,137.0844,143.8674,159.2946,0.00075207,0.00106041,0.0,0 STARLINK-4699,1 53716U 22107S   22275.58334491  .00106041  00000-0  75207-3 0  9995,2 53716  53.2138 137.0844 0001450 143.8674 159.2946 15.73149798  1300,6728.038000000001,91.536,350.879,348.92800000000005,0.0
53716.0,STARLINK-4699,PAYLOAD,2022-10-02 22:00:00,15.73212813,0.0001255,53.2139,135.4371,139.0345,253.0325,0.00043116,0.0006036,0.0,0 STARLINK-4699,1 53716U 22107S   22275.91667824  .00060360  00000-0  43116-3 0  9998,2 53716  53.2139 135.4371 0001255 139.0345 253.0325 15.73212813  1306,6727.859,91.532,350.5680000000001,348.879,0.0
53716.0,STARLINK-4699,PAYLOAD,2022-10-03 14:00:01,15.73272208,0.0001438,53.2145,132.1355,142.1251,67.9438,-0.00031938,-0.00045341,0.0,0 STARLINK-4699,1 53716U 22107S   22276.58334491 -.00045341  00000-0 -31938-3 0  9996,2 53716  53.2145 132.1355 0001438 142.1251  67.9438 15.73272208  4598,6727.689,91.529,350.522,348.587,0.0
53716.0,STARLINK-4699,PAYLOAD,2022-10-03 22:00:00,15.73215577,0.0001371,53.2145,130.488,126.9621,172.1153,-0.00024901,-0.00035443,0.0,0 STARLINK-4699,1 53716U 22107S   22276.91667824 -.00035443  00000-0 -24901-3 0  9996,2 53716  53.2145 130.4880 0001371 126.9621 172.1153 15.73215577  1304,6727.851,91.532,350.63800000000015,348.793,0.0
